[{"OBJECT_NAME":"STARLINK-36367","OBJECT_ID":"2026-020N","EPOCH":"2026-03-08T06:16:30.313344","MEAN_MOTION":15.76451181,"ECCENTRICITY":2.794e-5,"INCLINATION":42.9984,"RA_OF_ASC_NODE":150.5921,"ARG_OF_PERICENTER":277.7683,"MEAN_ANOMALY":82.3155,"EPHEMERIS_TYPE":0,"CLASSIFICATION_TYPE":"U","NORAD_CAT_ID":67629,"ELEMENT_SET_NO":999,"REV_AT_EPOCH":586,"BSTAR":0.0024454777,"MEAN_MOTION_DOT":0.00419727,"MEAN_MOTION_DDOT":0},{"OBJECT_NAME":"ANGELS","OBJECT_ID":"2019-092D","EPOCH":"2026-03-09T13:15:26.304192","MEAN_MOTION":15.80250466,"ECCENTRICITY":0.00029449,"INCLINATION":97.4199,"RA_OF_ASC_NODE":283.5362,"ARG_OF_PERICENTER":190.9639,"MEAN_ANOMALY":169.1565,"EPHEMERIS_TYPE":0,"CLASSIFICATION_TYPE":"U","NORAD_CAT_ID":44876,"ELEMENT_SET_NO":999,"REV_AT_EPOCH":34660,"BSTAR":0.00085253194,"MEAN_MOTION_DOT":0.00162032,"MEAN_MOTION_DDOT":0}]
